{"fetched_at":"2026-03-29T16:36:15Z","count":15609,"tles":[{"name":"STARLINK-3545","line1":"1 51855U 22022D   26087.84517976  .00000854  00000+0  71756-4 0  9998","line2":"2 51855  53.2170 293.0527 0001415  94.3618 265.7536 15.08839025225862","category":"Starlink"}]}