{
  "norad_id": 51855,
  "name": "STARLINK-3545",
  "history": [
    {
      "epoch": "2026-03-28T20:17:03.531264",
      "apogee_km": 540.725318826223,
      "perigee_km": 538.7674194750862,
      "latitude_deg": -43.00676099720408,
      "longitude_deg": 166.63725696015172,
      "semi_major_axis_km": 6917.883369150654,
      "eccentricity": 0.00014151,
      "inclination_deg": 53.217,
      "raan_deg": 293.0527,
      "arg_perigee_deg": 94.3618,
      "mean_anomaly_deg": 265.7536,
      "mean_motion_rev_day": 15.08839025
    }
  ]
}